YAOGAN 30 S             
1 45461U 20021B   22024.47201369  .00000676  00000+0  71314-4 0  9995
2 45461  34.9956 162.8840 0003597   7.8665 352.2099 14.90124630100150
YAOGAN 30 T             
1 45462U 20021C   22024.44897375  .00000684  00000+0  72150-4 0  9999
2 45462  34.9962 160.8986 0001938 250.0631 109.9866 14.90119149100179
AEHF-6 (USA 298)        
1 45465U 20022B   22023.80526251 -.00000282  00000+0  00000+0 0  9999
2 45465   6.2784 304.0482 0052403 357.1641 249.4798  1.00275662  6913
NOOR                    
1 45529U 20024A   22024.56069836  .00069395  00000+0  63141-3 0  9995
2 45529  59.8029 106.7175 0010174 122.7718  10.1357 15.67407051 99683
STARLINK-1329           
1 45531U 20025A   22024.14618174  .00005094  00000+0  36042-3 0  9994
2 45531  53.0566  25.2594 0001722  67.3470 292.7701 15.06420141 97571
STARLINK-1338           
1 45532U 20025B   22023.69281048  .00000963  00000+0  83523-4 0  9997
2 45532  53.0548  27.3028 0001431  80.5602 279.5549 15.06404087 98102
STARLINK-1339           
1 45533U 20025C   22024.37731994  .00030444  00000+0  99086-3 0  9991
2 45533  53.0508  13.7456 0002903  68.0894 292.0414 15.31628918 97752
STARLINK-1341           
1 45534U 20025D   22024.16829849  .00000590  00000+0  58488-4 0  9997
2 45534  53.0552  25.1682 0001663  68.7312 291.3855 15.06405668 97583
STARLINK-1350           
1 45535U 20025E   22023.72230189  .00001750  00000+0  13633-3 0  9993
2 45535  53.0552  27.1817 0001511  68.0411 292.0739 15.06403360 98117
STARLINK-1352           
1 45536U 20025F   22024.38945326  .00000563  00000+0  56682-4 0  9996
2 45536  53.0544  24.1746 0001619  69.1216 290.9946 15.06397010 97627
STARLINK-1353           
1 45537U 20025G   22024.33267575  .00010305  00000+0  53230-3 0  9995
2 45537  53.0041 353.4130 0001213  40.3230 319.7853 15.16855811 98034
STARLINK-1362           
1 45538U 20025H   22023.81814432  .00002879  00000+0  21211-3 0  9999
2 45538  53.0557  26.7387 0001359  67.7543 292.3590 15.06395271 98124
STARLINK-1367           
1 45539U 20025J   22024.09742187 -.00015925  00000+0 -93459-4 0  9990
2 45539  53.0486 256.2581 0003872   8.1239 351.9843 15.76712131 99359
STARLINK-1368           
1 45540U 20025K   22024.39301667  .00059683  00000+0  39647-2 0  9993
2 45540  53.0538  24.1543 0002799 126.2281 233.8967 15.06652064 97629
STARLINK-1369           
1 45541U 20025L   22024.13143649  .00002309  00000+0  17387-3 0  9991
2 45541  53.0548  25.3280 0001668  57.6497 302.4653 15.06398414 97577
STARLINK-1371           
1 45542U 20025M   22024.36364739  .00001233  00000+0  10164-3 0  9993
2 45542  53.0558  24.2937 0001462  73.9848 286.1302 15.06408288 97614
STARLINK-1372           
1 45543U 20025N   22024.13512207  .00001071  00000+0  90772-4 0  9998
2 45543  53.0560  25.3097 0001556  67.1735 292.9418 15.06403545 97581
STARLINK-1373           
1 45544U 20025P   22024.15356043  .00004326  00000+0  30904-3 0  9991
2 45544  53.0545  25.2399 0001611  67.8915 292.2245 15.06408655 97575
STARLINK-1374           
1 45545U 20025Q   22024.43736846 -.00001413  00000+0 -75979-4 0  9994
2 45545  53.0536  23.9620 0001569  65.9927 294.1226 15.06403709 97634
STARLINK-1375           
1 45546U 20025R   22023.71860670  .00002606  00000+0  19374-3 0  9997
2 45546  53.0546  27.1779 0001355  69.6083 290.5052 15.06403015 98104
STARLINK-1377           
1 45547U 20025S   22024.11300952  .00001039  00000+0  88609-4 0  9992
2 45547  53.0543  25.4039 0001453  74.5131 285.6018 15.06403769 97584
STARLINK-1378           
1 45548U 20025T   22023.74074790  .00004475  00000+0  31916-3 0  9994
2 45548  53.0551  27.0929 0001719  68.8515 291.2658 15.06398000 98100
STARLINK-1379           
1 45549U 20025U   22024.25859654 -.00278327  00000+0 -10263-2 0  9994
2 45549  53.0499 353.7949 0000873 113.7558 246.3558 15.88095731 98026
STARLINK-1390           
1 45550U 20025V   22024.15629591  .00005984  00000+0  42009-3 0  9999
2 45550  53.0552  25.2298 0001663  80.2064 279.9113 15.06417807 97574
STARLINK-1294           
1 45551U 20025W   22024.35812446  .00001996  00000+0  15282-3 0  9997
2 45551  53.0540   4.3178 0001518  65.0880 295.0267 15.06401937 97872
STARLINK-1322           
1 45552U 20025X   22024.14479789  .00051912  00000+0  10984-2 0  9990
2 45552  53.0570 339.1444 0002722 100.7864 259.3448 15.44644042 98219
STARLINK-1323           
1 45553U 20025Y   22024.10379701  .00000960  00000+0  83354-4 0  9990
2 45553  53.0563   5.4666 0001505  58.1885 301.9250 15.06404050 97842
STARLINK-1325           
1 45554U 20025Z   22024.16277035 -.00000639  00000+0 -24009-4 0  9991
2 45554  53.0552   5.1922 0001723  53.2696 306.8451 15.06398580 97848
STARLINK-1327           
1 45555U 20025AA  22024.12590358  .00000321  00000+0  40432-4 0  9998
2 45555  53.0538   5.3577 0001316  74.4055 285.7079 15.06410467 97843
STARLINK-1334           
1 45556U 20025AB  22024.43184873 -.00001684  00000+0 -94153-4 0  9998
2 45556  53.0552   3.9938 0001866  69.0039 291.1149 15.06395561 97898
STARLINK-1336           
1 45557U 20025AC  22023.64306126  .00006516  00000+0  45583-3 0  9997
2 45557  53.0537   7.5218 0001710  68.9160 291.2012 15.06407662 98374
STARLINK-1342           
1 45558U 20025AD  22024.14064968  .00001336  00000+0  10857-3 0  9990
2 45558  53.0554   5.2978 0001626  74.9835 285.1334 15.06408345 97843
STARLINK-1344           
1 45559U 20025AE  22023.64674170  .00004969  00000+0  35222-3 0  9995
2 45559  53.0546   7.5033 0001700  63.8430 296.2733 15.06403618 98376
STARLINK-1346           
1 45560U 20025AF  22024.29638297  .00003458  00000+0  25088-3 0  9990
2 45560  53.0557 354.5994 0001801  71.9787 288.1398 15.06410723 98011
STARLINK-1348           
1 45561U 20025AG  22024.43147476  .00006364  00000+0  41984-3 0  9993
2 45561  53.0578 277.7441 0002140 113.3031 246.8185 15.08638241 99114
STARLINK-1354           
1 45562U 20025AH  22023.65410852 -.00001394  00000+0 -74734-4 0  9998
2 45562  53.0543   7.4740 0001451  70.0680 290.0465 15.06401180 98377
STARLINK-1355           
1 45563U 20025AJ  22024.26598034  .00000731  00000+0  67962-4 0  9993
2 45563  53.0555   4.7385 0001535  68.5179 291.5974 15.06399650 97866
STARLINK-1356           
1 45564U 20025AK  22023.93056338  .00006121  00000+0  42936-3 0  9995
2 45564  53.0550   6.2279 0001759  68.7928 291.3248 15.06410800 98418
STARLINK-1357           
1 45565U 20025AL  22024.12221610  .00000503  00000+0  52697-4 0  9999
2 45565  53.0547   5.3744 0001690  57.7099 302.4053 15.06400815 97842
STARLINK-1358           
1 45566U 20025AM  22024.40235790  .00004117  00000+0  29505-3 0  9991
2 45566  53.0552   4.1255 0001791  63.5638 296.5534 15.06410374 97881
STARLINK-1361           
1 45567U 20025AN  22023.68360647 -.00001618  00000+0 -89751-4 0  9996
2 45567  53.0544   7.3389 0001509  67.9450 292.1699 15.06389300 98387
STARLINK-1363           
1 45568U 20025AP  22023.67529356  .00007096  00000+0  49468-3 0  9994
2 45568  53.0547   7.3844 0001692  73.6624 286.4551 15.06406215 98374
STARLINK-1366           
1 45569U 20025AQ  22023.88631598  .00001167  00000+0  97216-4 0  9998
2 45569  53.0550   6.4343 0001519  63.3837 296.7308 15.06396225 98400
STARLINK-1376           
1 45570U 20025AR  22024.34337559 -.00000715  00000+0 -29112-4 0  9992
2 45570  53.0556   4.3822 0001675  65.4023 294.7140 15.06405356 97878
STARLINK-1261           
1 45571U 20025AS  22023.89462531  .00003872  00000+0  27866-3 0  9999
2 45571  53.0555 356.4076 0001616  67.5010 292.6150 15.06405763 98561
STARLINK-1320           
1 45572U 20025AT  22024.15263504  .00000502  00000+0  52588-4 0  9996
2 45572  53.0558 355.2503 0001551  74.6089 285.5071 15.06399310 97988
STARLINK-1321           
1 45573U 20025AU  22024.39590646 -.00001170  00000+0 -59646-4 0  9999
2 45573  53.0559 354.1491 0001633  61.0647 299.0505 15.06396961 98022
STARLINK-1324           
1 45574U 20025AV  22024.15632093  .00003793  00000+0  27334-3 0  9996
2 45574  53.0556 355.2298 0001810  61.0253 299.0918 15.06410476 97998
STARLINK-1326           
1 45575U 20025AW  22024.16902212  .00006987  00000+0  44842-3 0  9992
2 45575  53.0018 349.7176 0001856  87.0756 273.0446 15.09509663 98046
STARLINK-1328           
1 45576U 20025AX  22023.91672784  .00000348  00000+0  42228-4 0  9995
2 45576  53.0552 356.2921 0001672  64.2886 295.8276 15.06408330 98564
STARLINK-1330           
1 45577U 20025AY  22024.33692945  .00000930  00000+0  81317-4 0  9993
2 45577  53.0536 354.4075 0001813  63.4323 296.6852 15.06402248 98012
STARLINK-1331           
1 45578U 20025AZ  22024.17475100  .00001539  00000+0  12219-3 0  9998
2 45578  53.0543 355.1506 0001613  62.3178 297.7975 15.06400896 97993
STARLINK-1332           
1 45579U 20025BA  22024.10008319  .00004354  00000+0  31088-3 0  9999
2 45579  53.0540 315.4683 0000827 155.6386 204.4642 15.06412175 98551
STARLINK-1333           
1 45580U 20025BB  22024.11485453  .00000833  00000+0  74780-4 0  9995
2 45580  53.0552   5.4022 0001553  67.0431 293.0722 15.06404414 97844
STARLINK-1335           
1 45581U 20025BC  22024.31849084  .00000496  00000+0  52215-4 0  9996
2 45581  53.0555 354.4926 0001671  69.5945 290.5224 15.06401596 98013
STARLINK-1337           
1 45582U 20025BD  22023.61079910  .00001597  00000+0  12609-3 0  9997
2 45582  53.0535 357.6664 0001791  66.5469 293.5708 15.06393978 98505
STARLINK-1340           
1 45583U 20025BE  22024.12313273  .00002324  00000+0  17480-3 0  9999
2 45583  53.0546 355.3647 0001985  59.3597 300.7588 15.06409964 97982
STARLINK-1343           
1 45584U 20025BF  22024.17843984  .00007035  00000+0  49039-3 0  9991
2 45584  53.0545 355.1111 0001643  72.4608 287.6561 15.06424349 97995
STARLINK-1347           
1 45586U 20025BH  22024.13419814  .00000338  00000+0  41578-4 0  9990
2 45586  53.0569 355.3162 0001625  58.8458 301.2690 15.06396592 97974
